house,street,postalCode,city,state,stateCode,country,countryCode
777,Brockton Avenue,MA 2351,Abington,Massachusetts,MA,United States of America,USA
30,Memorial Drive,MA 2322,Avon,Massachusetts,MA,United States of America,USA
250,Hartford Avenue,MA 2019,Bellingham,Massachusetts,MA,United States of America,USA
700,Oak Street, MA 2301,Brockton,Massachusetts,MA,United States of America,USA
66-4,Parkhurst Rd, MA 1824,Chelmsford,Massachusetts,MA,United States of America,USA
591,Memorial Dr, MA 1020,Chicopee,Massachusetts,MA,United States of America,USA
10,PRIVADA UNIÓN,08100,CIUDAD DE MÉXICO,CIUDAD DE MÉXICO,CDMEX,MEXICO,MEX
Sra. Otilia Ramos Perez,Urión 30,02860,Col. Atlatilco,D F Mexico,,MEXICO,MEX
Departmento de Asuntos Internationales,Nezahualcoyotl 109 Piso 8 Centro,06082,Mexico,Mexico,,Mexico,MEX
Alonso Reyes Diáz Super Manzana 3 - 403,Puerto Juarez, 77520,CANCUN, Q. ROO,,Mexico,Mex
,8th Straco # 69,46800,Puerto Vallarta,JAL,,Mexico,mex
ABB Sistemas,S.A de C.V Flexible Automation Division,06600,BIS Col.Centro,Mexico,, Mexico,Mex
,3099 50th Street,T9C 1S1,Vegreville,Alberta,,Canada,CA
,2469 Yonge Street,M4W 1J7,Toronto,Ontario,,Canada,CA
,4227 Yonge Street,M4W 1J7,Toronto,Ontario,,Canada,CA
,1521 Port Washington Road,T0L 1L0,Milo,Alberta,,Canada,CA
,2256 St. Paul Street,L2S 3A1,St Catharines,Ontario,,Canada,CA
,1481 St Jean Baptiste St,G0J 3H0,St Ulric,Quebec,,Canada,CA
,Ooievaarlaan 19,4105 WR,Culemborg,Gelderland,,Netherlands,NLD
,De Schelp 13,2042 DX,Zandvoort,Noord-Holland,,Netherlands,NLD
,De Beukenhaag 180,7325 GR,Apeldoorn,Gelderland,,Netherlands,NLD
,Stelling 140,7773 ND,Hardenberg, Overijssel,,Netherlands,NLD
,Kreekweg 124,6541 BX,Nijmegen,Gelderland,,Netherlands,NLD
,Stalen Enk 112,6881 BP,Velp,Gelderland,,Netherlands,NLD